{
    "links": {
        "self": "http://www.neowsapp.com/rest/v1/neo/3837671?api_key=iIulBulltgU6a56xZRHN4H3l9WmuAYTsLGpBGhQ2"
    },
    "id": "3837671",
    "neo_reference_id": "3837671",
    "name": "(2019 AB5)",
    "designation": "2019 AB5",
    "nasa_jpl_url": "http://ssd.jpl.nasa.gov/sbdb.cgi?sstr=3837671",
    "absolute_magnitude_h": 25.5,
    "estimated_diameter": {
        "kilometers": {
            "estimated_diameter_min": 0.0211132445,
            "estimated_diameter_max": 0.0472106499
        },
        "meters": {
            "estimated_diameter_min": 21.113244479,
            "estimated_diameter_max": 47.2106498806
        },
        "miles": {
            "estimated_diameter_min": 0.0131191578,
            "estimated_diameter_max": 0.0293353287
        },
        "feet": {
            "estimated_diameter_min": 69.2691770164,
            "estimated_diameter_max": 154.8905885541
        }
    },
    "is_potentially_hazardous_asteroid": false,
    "close_approach_data": [
        {
            "close_approach_date": "2019-01-19",
            "close_approach_date_full": "2019-Jan-19 22:55",
            "epoch_date_close_approach": 1547938500000,
            "relative_velocity": {
                "kilometers_per_second": "6.6424072754",
                "kilometers_per_hour": "23912.6661915434",
                "miles_per_hour": "14858.4008344065"
            },
            "miss_distance": {
                "astronomical": "0.0191495575",
                "lunar": "7.4491778675",
                "kilometers": "2864733.013442525",
                "miles": "1780062.551955845"
            },
            "orbiting_body": "Earth"
        }
    ],
    "orbital_data": {
        "orbit_id": "6",
        "orbit_determination_date": "2019-02-05 07:52:01",
        "first_observation_date": "2019-01-02",
        "last_observation_date": "2019-02-05",
        "data_arc_in_days": 34,
        "observations_used": 29,
        "orbit_uncertainty": "7",
        "minimum_orbit_intersection": ".0177781",
        "jupiter_tisserand_invariant": "3.635",
        "epoch_osculation": "2459000.5",
        "eccentricity": ".5110398626582667",
        "semi_major_axis": "2.03147249637037",
        "inclination": "1.23438881106864",
        "ascending_node_longitude": "258.6637726443813",
        "orbital_period": "1057.583940043936",
        "perihelion_distance": ".9933090708312097",
        "perihelion_argument": "228.0993024315453",
        "aphelion_distance": "3.06963592190953",
        "perihelion_time": "2458509.878766440984",
        "mean_anomaly": "167.0067380882392",
        "mean_motion": ".3403985124670522",
        "equinox": "J2000",
        "orbit_class": {
            "orbit_class_type": "APO",
            "orbit_class_description": "Near-Earth asteroid orbits which cross the Earth’s orbit similar to that of 1862 Apollo",
            "orbit_class_range": "a (semi-major axis) > 1.0 AU; q (perihelion) < 1.017 AU"
        }
    },
    "is_sentry_object": false
}